GLOBALSTAR M080         
1 38041U 11080B   26196.43294816 -.00000083  00000+0  11595-3 0  9992
2 38041  52.0069 293.0224 0000298  83.1716 355.0622 12.62257435672451
GLOBALSTAR M082         
1 38042U 11080C   26196.45370036 -.00000072  00000+0  17723-3 0  9991
2 38042  52.0062 248.4631 0000194  88.4428  14.0807 12.62264246673168
GLOBALSTAR M092         
1 38043U 11080D   26196.83693785 -.00000088  00000+0  88256-4 0  9990
2 38043  52.0105 337.6936 0000779 103.6458  60.5815 12.62267811671667
GLOBALSTAR M090         
1 38044U 11080E   26196.31700969 -.00000053  00000+0  28459-3 0  9997
2 38044  52.0106 242.8440 0000427  91.1185 348.7415 12.62269578673261
GLOBALSTAR M086         
1 38045U 11080F   26196.42344416 -.00000087  00000+0  91631-4 0  9991
2 38045  51.9879 242.4025 0001511 112.0880 355.3845 12.62287762673224
GLOBALSTAR M097         
1 39072U 13005A   26196.90669932 -.00000127  00000+0 -12785-3 0  9995
2 39072  52.0027 155.9101 0000456  40.4806 319.6095 12.62271369620536
GLOBALSTAR M093         
1 39073U 13005B   26196.80075203 -.00000117  00000+0 -76055-4 0  9997
2 39073  52.0089 149.5905 0000668  45.0798 315.0123 12.62266309620475
GLOBALSTAR M094         
1 39074U 13005C   26196.80060750 -.00000104  00000+0  11299-6 0  9995
2 39074  51.9974  63.6800 0000996  63.3164 296.7804 12.62264174622089
GLOBALSTAR M096         
1 39075U 13005D   26196.97250249 -.00000097  00000+0  36869-4 0  9997
2 39075  52.0071 111.9802 0000758  43.7905 316.3022 12.62265716621027
GLOBALSTAR M078         
1 39076U 13005E   26196.94563202 -.00000120  00000+0 -88472-4 0  9996
2 39076  51.9845 196.0329 0000851 340.3417  19.7416 12.62260137619649
GLOBALSTAR M095         
1 39077U 13005F   26196.73475766 -.00000119  00000+0 -85055-4 0  9993
2 39077  52.0054 194.3192 0000468  13.1932 346.8947 12.62264145619471
GLOBALSTAR M087         
1 52888U 22064A   26196.66868377 -.00000103  00000+0  43333-5 0  9995
2 52888  52.0013 335.7423 0000918  85.2007 274.8964 12.62269258194738
